[{"OBJECT_NAME":"STARLINK-34053","OBJECT_ID":"2025-093B","EPOCH":"2026-03-05T03:06:05.714784","MEAN_MOTION":15.27573084,"ECCENTRICITY":0.0001156,"INCLINATION":42.998,"RA_OF_ASC_NODE":103.7475,"ARG_OF_PERICENTER":244.2008,"MEAN_ANOMALY":115.8725,"EPHEMERIS_TYPE":0,"CLASSIFICATION_TYPE":"U","NORAD_CAT_ID":63837,"ELEMENT_SET_NO":999,"REV_AT_EPOCH":4721,"BSTAR":0.00087124,"MEAN_MOTION_DOT":0.00023785,"MEAN_MOTION_DDOT":0},{"OBJECT_NAME":"STARLINK-34042","OBJECT_ID":"2025-093C","EPOCH":"2026-03-05T03:49:08.364576","MEAN_MOTION":15.27576958,"ECCENTRICITY":0.0001016,"INCLINATION":43.003,"RA_OF_ASC_NODE":99.647,"ARG_OF_PERICENTER":247.8365,"MEAN_ANOMALY":112.2379,"EPHEMERIS_TYPE":0,"CLASSIFICATION_TYPE":"U","NORAD_CAT_ID":63838,"ELEMENT_SET_NO":999,"REV_AT_EPOCH":4732,"BSTAR":0.0010686,"MEAN_MOTION_DOT":0.00029257,"MEAN_MOTION_DDOT":0},{"OBJECT_NAME":"STARLINK-34040","OBJECT_ID":"2025-093D","EPOCH":"2026-03-05T02:47:34.670400","MEAN_MOTION":15.27612711,"ECCENTRICITY":9.73e-5,"INCLINATION":42.9999,"RA_OF_ASC_NODE":103.6539,"ARG_OF_PERICENTER":265.1634,"MEAN_ANOMALY":94.9107,"EPHEMERIS_TYPE":0,"CLASSIFICATION_TYPE":"U","NORAD_CAT_ID":63839,"ELEMENT_SET_NO":999,"REV_AT_EPOCH":4727,"BSTAR":0.0013283,"MEAN_MOTION_DOT":0.00036508,"MEAN_MOTION_DDOT":0},{"OBJECT_NAME":"STARLINK-33990","OBJECT_ID":"2025-093E","EPOCH":"2026-03-05T02:51:17.481312","MEAN_MOTION":15.27594741,"ECCENTRICITY":6.6e-6,"INCLINATION":42.9926,"RA_OF_ASC_NODE":103.6554,"ARG_OF_PERICENTER":203.9738,"MEAN_ANOMALY":156.1111,"EPHEMERIS_TYPE":0,"CLASSIFICATION_TYPE":"U","NORAD_CAT_ID":63840,"ELEMENT_SET_NO":999,"REV_AT_EPOCH":4705,"BSTAR":0.0012068,"MEAN_MOTION_DOT":0.0003311,"MEAN_MOTION_DDOT":0},{"OBJECT_NAME":"STARLINK-34056","OBJECT_ID":"2025-093F","EPOCH":"2026-03-05T03:19:02.944128","MEAN_MOTION":15.27588256,"ECCENTRICITY":7.27e-5,"INCLINATION":42.9976,"RA_OF_ASC_NODE":103.8216,"ARG_OF_PERICENTER":233.0203,"MEAN_ANOMALY":127.0582,"EPHEMERIS_TYPE":0,"CLASSIFICATION_TYPE":"U","NORAD_CAT_ID":63841,"ELEMENT_SET_NO":999,"REV_AT_EPOCH":4705,"BSTAR":0.0010247,"MEAN_MOTION_DOT":0.00028049,"MEAN_MOTION_DDOT":0},{"OBJECT_NAME":"STARLINK-34026","OBJECT_ID":"2025-093G","EPOCH":"2026-03-05T03:20:54.048480","MEAN_MOTION":15.27620599,"ECCENTRICITY":7.24e-5,"INCLINATION":42.9999,"RA_OF_ASC_NODE":103.8319,"ARG_OF_PERICENTER":232.3856,"MEAN_ANOMALY":127.693,"EPHEMERIS_TYPE":0,"CLASSIFICATION_TYPE":"U","NORAD_CAT_ID":63842,"ELEMENT_SET_NO":999,"REV_AT_EPOCH":4705,"BSTAR":0.0016675,"MEAN_MOTION_DOT":0.00045967,"MEAN_MOTION_DDOT":0},{"OBJECT_NAME":"STARLINK-33777","OBJECT_ID":"2025-093H","EPOCH":"2026-03-05T02:27:14.292864","MEAN_MOTION":15.27601662,"ECCENTRICITY":6.35e-5,"INCLINATION":42.9991,"RA_OF_ASC_NODE":103.5445,"ARG_OF_PERICENTER":101.348,"MEAN_ANOMALY":258.7443,"EPHEMERIS_TYPE":0,"CLASSIFICATION_TYPE":"U","NORAD_CAT_ID":63843,"ELEMENT_SET_NO":999,"REV_AT_EPOCH":4727,"BSTAR":0.0011213,"MEAN_MOTION_DOT":0.00030743,"MEAN_MOTION_DDOT":0},{"OBJECT_NAME":"STARLINK-34041","OBJECT_ID":"2025-093J","EPOCH":"2026-03-05T03:28:17.805792","MEAN_MOTION":15.27585707,"ECCENTRICITY":0.0001145,"INCLINATION":42.9978,"RA_OF_ASC_NODE":103.8681,"ARG_OF_PERICENTER":221.0512,"MEAN_ANOMALY":139.0254,"EPHEMERIS_TYPE":0,"CLASSIFICATION_TYPE":"U","NORAD_CAT_ID":63844,"ELEMENT_SET_NO":999,"REV_AT_EPOCH":4727,"BSTAR":0.0013686,"MEAN_MOTION_DOT":0.00037596,"MEAN_MOTION_DDOT":0},{"OBJECT_NAME":"STARLINK-34011","OBJECT_ID":"2025-093K","EPOCH":"2026-03-05T03:39:23.661216","MEAN_MOTION":15.27598419,"ECCENTRICITY":0.0004704,"INCLINATION":42.9883,"RA_OF_ASC_NODE":103.9144,"ARG_OF_PERICENTER":146.2943,"MEAN_ANOMALY":213.8208,"EPHEMERIS_TYPE":0,"CLASSIFICATION_TYPE":"U","NORAD_CAT_ID":63845,"ELEMENT_SET_NO":999,"REV_AT_EPOCH":4705,"BSTAR":0.00096536,"MEAN_MOTION_DOT":0.00026419,"MEAN_MOTION_DDOT":0},{"OBJECT_NAME":"STARLINK-34044","OBJECT_ID":"2025-093L","EPOCH":"2026-03-05T02:29:04.972992","MEAN_MOTION":15.27590441,"ECCENTRICITY":0.0001588,"INCLINATION":42.9978,"RA_OF_ASC_NODE":103.5518,"ARG_OF_PERICENTER":172.4567,"MEAN_ANOMALY":187.6309,"EPHEMERIS_TYPE":0,"CLASSIFICATION_TYPE":"U","NORAD_CAT_ID":63846,"ELEMENT_SET_NO":999,"REV_AT_EPOCH":4705,"BSTAR":0.00090854,"MEAN_MOTION_DOT":0.00024831,"MEAN_MOTION_DDOT":0},{"OBJECT_NAME":"STARLINK-34037","OBJECT_ID":"2025-093M","EPOCH":"2026-03-05T02:43:53.426784","MEAN_MOTION":15.27601133,"ECCENTRICITY":0.0002437,"INCLINATION":42.9968,"RA_OF_ASC_NODE":103.6321,"ARG_OF_PERICENTER":298.5679,"MEAN_ANOMALY":61.4927,"EPHEMERIS_TYPE":0,"CLASSIFICATION_TYPE":"U","NORAD_CAT_ID":63847,"ELEMENT_SET_NO":999,"REV_AT_EPOCH":4727,"BSTAR":0.0010432,"MEAN_MOTION_DOT":0.00028574,"MEAN_MOTION_DDOT":0},{"OBJECT_NAME":"STARLINK-34010","OBJECT_ID":"2025-093N","EPOCH":"2026-03-05T02:53:08.358432","MEAN_MOTION":15.27600676,"ECCENTRICITY":0.0002718,"INCLINATION":43.0008,"RA_OF_ASC_NODE":103.6796,"ARG_OF_PERICENTER":293.4909,"MEAN_ANOMALY":66.5657,"EPHEMERIS_TYPE":0,"CLASSIFICATION_TYPE":"U","NORAD_CAT_ID":63848,"ELEMENT_SET_NO":999,"REV_AT_EPOCH":4705,"BSTAR":0.00082875,"MEAN_MOTION_DOT":0.00022629,"MEAN_MOTION_DDOT":0},{"OBJECT_NAME":"STARLINK-34009","OBJECT_ID":"2025-093P","EPOCH":"2026-03-05T03:21:35.597376","MEAN_MOTION":15.27590006,"ECCENTRICITY":0.0001445,"INCLINATION":42.9988,"RA_OF_ASC_NODE":100.3591,"ARG_OF_PERICENTER":211.1607,"MEAN_ANOMALY":148.9159,"EPHEMERIS_TYPE":0,"CLASSIFICATION_TYPE":"U","NORAD_CAT_ID":63849,"ELEMENT_SET_NO":999,"REV_AT_EPOCH":4731,"BSTAR":0.0013037,"MEAN_MOTION_DOT":0.00035799,"MEAN_MOTION_DDOT":0},{"OBJECT_NAME":"STARLINK-33958","OBJECT_ID":"2025-093Q","EPOCH":"2026-03-05T03:30:08.908416","MEAN_MOTION":15.27573384,"ECCENTRICITY":0.0001096,"INCLINATION":42.9991,"RA_OF_ASC_NODE":103.8782,"ARG_OF_PERICENTER":250.979,"MEAN_ANOMALY":109.0942,"EPHEMERIS_TYPE":0,"CLASSIFICATION_TYPE":"U","NORAD_CAT_ID":63850,"ELEMENT_SET_NO":999,"REV_AT_EPOCH":4711,"BSTAR":0.00074457,"MEAN_MOTION_DOT":0.00020279,"MEAN_MOTION_DDOT":0},{"OBJECT_NAME":"STARLINK-33776","OBJECT_ID":"2025-093R","EPOCH":"2026-03-05T02:34:38.311968","MEAN_MOTION":15.27602531,"ECCENTRICITY":9.8e-5,"INCLINATION":43.0013,"RA_OF_ASC_NODE":103.5815,"ARG_OF_PERICENTER":185.4559,"MEAN_ANOMALY":174.6282,"EPHEMERIS_TYPE":0,"CLASSIFICATION_TYPE":"U","NORAD_CAT_ID":63851,"ELEMENT_SET_NO":999,"REV_AT_EPOCH":4726,"BSTAR":0.0010446,"MEAN_MOTION_DOT":0.00028615,"MEAN_MOTION_DDOT":0},{"OBJECT_NAME":"STARLINK-34032","OBJECT_ID":"2025-093T","EPOCH":"2026-03-05T02:38:20.071392","MEAN_MOTION":15.27612422,"ECCENTRICITY":0.0001899,"INCLINATION":43.0003,"RA_OF_ASC_NODE":103.5826,"ARG_OF_PERICENTER":280.1278,"MEAN_ANOMALY":79.9359,"EPHEMERIS_TYPE":0,"CLASSIFICATION_TYPE":"U","NORAD_CAT_ID":63853,"ELEMENT_SET_NO":999,"REV_AT_EPOCH":4727,"BSTAR":0.0014126,"MEAN_MOTION_DOT":0.00038853,"MEAN_MOTION_DDOT":0}]
