STARLINK-34053          
1 63837U 25093B   26064.12923281  .00023785  00000+0  87124-3 0  9991
2 63837  42.9980 103.7475 0001156 244.2008 115.8725 15.27573084 47216
STARLINK-34042          
1 63838U 25093C   26064.15912459  .00029257  00000+0  10686-2 0  9998
2 63838  43.0030  99.6470 0001016 247.8365 112.2379 15.27576958 47324
STARLINK-34040          
1 63839U 25093D   26064.11637350  .00036508  00000+0  13283-2 0  9992
2 63839  42.9999 103.6539 0000973 265.1634  94.9107 15.27612711 47279
STARLINK-33990          
1 63840U 25093E   26064.11895233  .00033110  00000+0  12068-2 0  9996
2 63840  42.9926 103.6554 0000066 203.9738 156.1111 15.27594741 47050
STARLINK-34056          
1 63841U 25093F   26064.13822852  .00028049  00000+0  10247-2 0  9998
2 63841  42.9976 103.8216 0000727 233.0203 127.0582 15.27588256 47051
STARLINK-34026          
1 63842U 25093G   26064.13951445  .00045967  00000+0  16675-2 0  9999
2 63842  42.9999 103.8319 0000724 232.3856 127.6930 15.27620599 47054
STARLINK-33777          
1 63843U 25093H   26064.10224876  .00030743  00000+0  11213-2 0  9997
2 63843  42.9991 103.5445 0000635 101.3480 258.7443 15.27601662 47272
STARLINK-34041          
1 63844U 25093J   26064.14465053  .00037596  00000+0  13686-2 0  9995
2 63844  42.9978 103.8681 0001145 221.0512 139.0254 15.27585707 47278
STARLINK-34011          
1 63845U 25093K   26064.15235719  .00026419  00000+0  96536-3 0  9999
2 63845  42.9883 103.9144 0004704 146.2943 213.8208 15.27598419 47059
STARLINK-34044          
1 63846U 25093L   26064.10352978  .00024831  00000+0  90854-3 0  9995
2 63846  42.9978 103.5518 0001588 172.4567 187.6309 15.27590441 47053
STARLINK-34037          
1 63847U 25093M   26064.11381281  .00028574  00000+0  10432-2 0  9997
2 63847  42.9968 103.6321 0002437 298.5679  61.4927 15.27601133 47274
STARLINK-34010          
1 63848U 25093N   26064.12023563  .00022629  00000+0  82875-3 0  9991
2 63848  43.0008 103.6796 0002718 293.4909  66.5657 15.27600676 47053
STARLINK-34009          
1 63849U 25093P   26064.13999534  .00035799  00000+0  13037-2 0  9998
2 63849  42.9988 100.3591 0001445 211.1607 148.9159 15.27590006 47310
STARLINK-33958          
1 63850U 25093Q   26064.14593644  .00020279  00000+0  74457-3 0  9994
2 63850  42.9991 103.8782 0001096 250.9790 109.0942 15.27573384 47118
STARLINK-33776          
1 63851U 25093R   26064.10738787  .00028615  00000+0  10446-2 0  9999
2 63851  43.0013 103.5815 0000980 185.4559 174.6282 15.27602531 47264
STARLINK-34032          
1 63853U 25093T   26064.10995453  .00038853  00000+0  14126-2 0  9990
2 63853  43.0003 103.5826 0001899 280.1278  79.9359 15.27612422 47271
